start=new Date('2022-02-23T00:00:00.000Z').valueOf();
sats=[{"PERIOD":"95.592","RA_OF_ASC_NODE":"326.6907","EPOCH":"2022-02-22T21:37:58.895040","APOAPSIS":"548.358","PERIAPSIS":"546.053","MEAN_MOTION":"15.06402600","REF_FRAME":"TEME","OBJECT_TYPE":"PAYLOAD","CLASSIFICATION_TYPE":"U","MEAN_MOTION_DDOT":"0.0000000000000","DECAY_DATE":null,"MEAN_ELEMENT_THEORY":"SGP4","RCS_SIZE":"LARGE","NORAD_CAT_ID":"48447","MEAN_MOTION_DOT":"0.00002256","SITE":"AFETR","ELEMENT_SET_NO":"999","EPHEMERIS_TYPE":"0","COUNTRY_CODE":"US","OBJECT_NAME":"STARLINK-2269","MEAN_ANOMALY":"311.4019","TLE_LINE1":"1 48447U 21040V   22053.90137610  .00002256  00000-0  17032-3 0  9994","OBJECT_ID":"2021-040V","INCLINATION":"53.0567","TLE_LINE2":"2 48447  53.0567 326.6907 0001664  48.7113 311.4019 15.06402600 44190","SEMIMAJOR_AXIS":"6925.341","CENTER_NAME":"EARTH","BSTAR":"0.00017032000000","TIME_SYSTEM":"UTC","FILE":"3314780","GP_ID":"196685272","ECCENTRICITY":"0.00016640","ARG_OF_PERICENTER":"48.7113","REV_AT_EPOCH":"4419","LAUNCH_DATE":"2021-05-09"},{"MEAN_ELEMENT_THEORY":"SGP4","RCS_SIZE":"LARGE","DECAY_DATE":null,"NORAD_CAT_ID":"48448","OBJECT_TYPE":"PAYLOAD","CLASSIFICATION_TYPE":"U","MEAN_MOTION_DDOT":"0.0000000000000","MEAN_MOTION":"15.06391180","PERIAPSIS":"546.207","REF_FRAME":"TEME","EPOCH":"2022-02-22T20:38:14.968608","RA_OF_ASC_NODE":"326.8816","PERIOD":"95.593","APOAPSIS":"548.274","ARG_OF_PERICENTER":"65.6225","LAUNCH_DATE":"2021-05-09","REV_AT_EPOCH":"4418","FILE":"3314780","TIME_SYSTEM":"UTC","ECCENTRICITY":"0.00014920","GP_ID":"196684020","INCLINATION":"53.0560","OBJECT_ID":"2021-040W","CENTER_NAME":"EARTH","BSTAR":"0.00014098000000","TLE_LINE2":"2 48448  53.0560 326.8816 0001492  65.6225 294.4919 15.06391180 44184","SEMIMAJOR_AXIS":"6925.376","MEAN_MOTION_DOT":"0.00001819","SITE":"AFETR","ELEMENT_SET_NO":"999","EPHEMERIS_TYPE":"0","OBJECT_NAME":"STARLINK-2632","TLE_LINE1":"1 48448U 21040W   22053.85989547  .00001819  00000-0  14098-3 0  9996","MEAN_ANOMALY":"294.4919","COUNTRY_CODE":"US"},{"OBJECT_TYPE":"PAYLOAD","CLASSIFICATION_TYPE":"U","MEAN_MOTION_DDOT":"0.0000000000000","DECAY_DATE":null,"MEAN_ELEMENT_THEORY":"SGP4","RCS_SIZE":"LARGE","NORAD_CAT_ID":"48449","PERIOD":"95.599","RA_OF_ASC_NODE":"326.7119","EPOCH":"2022-02-22T21:32:43.250784","APOAPSIS":"548.132","PERIAPSIS":"546.943","MEAN_MOTION":"15.06294304","REF_FRAME":"TEME","TIME_SYSTEM":"UTC","FILE":"3314780","GP_ID":"196684270","ECCENTRICITY":"0.00008580","ARG_OF_PERICENTER":"77.1936","REV_AT_EPOCH":"4419","LAUNCH_DATE":"2021-05-09","MEAN_MOTION_DOT":"0.00023929","SITE":"AFETR","ELEMENT_SET_NO":"999","EPHEMERIS_TYPE":"0","COUNTRY_CODE":"US","OBJECT_NAME":"STARLINK-2655","TLE_LINE1":"1 48449U 21040X   22053.89772281  .00023929  00000-0  16245-2 0  9997","MEAN_ANOMALY":"282.9149","INCLINATION":"53.0557","OBJECT_ID":"2021-040X","TLE_LINE2":"2 48449  53.0557 326.7119 0000858  77.1936 282.9149 15.06294304 44196","SEMIMAJOR_AXIS":"6925.673","CENTER_NAME":"EARTH","BSTAR":"0.00162450000000"},{"GP_ID":"196684521","ECCENTRICITY":"0.00016530","TIME_SYSTEM":"UTC","FILE":"3314780","REV_AT_EPOCH":"4419","LAUNCH_DATE":"2021-05-09","ARG_OF_PERICENTER":"58.4503","COUNTRY_CODE":"US","MEAN_ANOMALY":"301.6648","TLE_LINE1":"1 48450U 21040Y   22053.89400807 -.00000918  00000-0 -42756-4 0  9994","OBJECT_NAME":"STARLINK-2660","EPHEMERIS_TYPE":"0","MEAN_MOTION_DOT":"-0.00000918","SITE":"AFETR","ELEMENT_SET_NO":"999","SEMIMAJOR_AXIS":"6925.341","TLE_LINE2":"2 48450  53.0567 326.7196 0001653  58.4503 301.6648 15.06402365 44191","BSTAR":"-0.00004275600000","CENTER_NAME":"EARTH","OBJECT_ID":"2021-040Y","INCLINATION":"53.0567","MEAN_MOTION_DDOT":"0.0000000000000","CLASSIFICATION_TYPE":"U","OBJECT_TYPE":"PAYLOAD","NORAD_CAT_ID":"48450","DECAY_DATE":null,"RCS_SIZE":"LARGE","MEAN_ELEMENT_THEORY":"SGP4","APOAPSIS":"548.351","RA_OF_ASC_NODE":"326.7196","PERIOD":"95.592","EPOCH":"2022-02-22T21:27:22.297248","REF_FRAME":"TEME","PERIAPSIS":"546.062","MEAN_MOTION":"15.06402365"},{"ARG_OF_PERICENTER":"71.2618","LAUNCH_DATE":"2021-05-09","REV_AT_EPOCH":"4419","TIME_SYSTEM":"UTC","FILE":"3314780","ECCENTRICITY":"0.00015230","GP_ID":"196684772","INCLINATION":"53.0546","OBJECT_ID":"2021-040Z","BSTAR":"0.00010720000000","CENTER_NAME":"EARTH","SEMIMAJOR_AXIS":"6925.339","TLE_LINE2":"2 48451  53.0546 326.7446 0001523  71.2618 288.8537 15.06403240 44199","EPHEMERIS_TYPE":"0","SITE":"AFETR","ELEMENT_SET_NO":"999","MEAN_MOTION_DOT":"0.00001316","MEAN_ANOMALY":"288.8537","TLE_LINE1":"1 48451U 21040Z   22053.89031875  .00001316  00000-0  10720-3 0  9996","OBJECT_NAME":"STARLINK-2652","COUNTRY_CODE":"US","RCS_SIZE":"LARGE","MEAN_ELEMENT_THEORY":"SGP4","DECAY_DATE":null,"NORAD_CAT_ID":"48451","OBJECT_TYPE":"PAYLOAD","MEAN_MOTION_DDOT":"0.0000000000000","CLASSIFICATION_TYPE":"U","MEAN_MOTION":"15.06403240","PERIAPSIS":"546.149","REF_FRAME":"TEME","EPOCH":"2022-02-22T21:22:03.540000","RA_OF_ASC_NODE":"326.7446","PERIOD":"95.592","APOAPSIS":"548.258"},{"SEMIMAJOR_AXIS":"6925.381","TLE_LINE2":"2 48452  53.0585 326.7301 0001670  52.6671 307.4470 15.06389504 44198","BSTAR":"-0.00011142000000","CENTER_NAME":"EARTH","INCLINATION":"53.0585","OBJECT_ID":"2021-040AA","COUNTRY_CODE":"US","MEAN_ANOMALY":"307.4470","TLE_LINE1":"1 48452U 21040AA  22053.89307586 -.00001940  00000-0 -11142-3 0  9996","OBJECT_NAME":"STARLINK-2703","EPHEMERIS_TYPE":"0","SITE":"AFETR","MEAN_MOTION_DOT":"-0.00001940","ELEMENT_SET_NO":"999","REV_AT_EPOCH":"4419","LAUNCH_DATE":"2021-05-09","ARG_OF_PERICENTER":"52.6671","GP_ID":"196683520","ECCENTRICITY":"0.00016700","FILE":"3314780","TIME_SYSTEM":"UTC","REF_FRAME":"TEME","PERIAPSIS":"546.089","MEAN_MOTION":"15.06389504","APOAPSIS":"548.402","PERIOD":"95.593","RA_OF_ASC_NODE":"326.7301","EPOCH":"2022-02-22T21:26:01.754304","NORAD_CAT_ID":"48452","DECAY_DATE":null,"RCS_SIZE":"LARGE","MEAN_ELEMENT_THEORY":"SGP4","MEAN_MOTION_DDOT":"0.0000000000000","CLASSIFICATION_TYPE":"U","OBJECT_TYPE":"PAYLOAD"},{"OBJECT_ID":"2021-040AB","INCLINATION":"53.0558","BSTAR":"0.00002610900000","CENTER_NAME":"EARTH","SEMIMAJOR_AXIS":"6925.358","TLE_LINE2":"2 48453  53.0558 327.0435 0001526  65.3811 294.7336 15.06396862 44181","EPHEMERIS_TYPE":"0","ELEMENT_SET_NO":"999","SITE":"AFETR","MEAN_MOTION_DOT":"0.00000107","TLE_LINE1":"1 48453U 21040AB  22053.82029142  .00000107  00000-0  26109-4 0  9991","MEAN_ANOMALY":"294.7336","OBJECT_NAME":"STARLINK-2620","COUNTRY_CODE":"US","ARG_OF_PERICENTER":"65.3811","LAUNCH_DATE":"2021-05-09","REV_AT_EPOCH":"4418","TIME_SYSTEM":"UTC","FILE":"3314780","ECCENTRICITY":"0.00015260","GP_ID":"196683770","MEAN_MOTION":"15.06396862","PERIAPSIS":"546.166","REF_FRAME":"TEME","EPOCH":"2022-02-22T19:41:13.178688","RA_OF_ASC_NODE":"327.0435","PERIOD":"95.592","APOAPSIS":"548.280","RCS_SIZE":"LARGE","MEAN_ELEMENT_THEORY":"SGP4","DECAY_DATE":null,"NORAD_CAT_ID":"48453","OBJECT_TYPE":"PAYLOAD","MEAN_MOTION_DDOT":"0.0000000000000","CLASSIFICATION_TYPE":"U"},{"APOAPSIS":"548.176","EPOCH":"2022-02-22T19:35:54.220128","PERIOD":"95.592","RA_OF_ASC_NODE":"327.0732","REF_FRAME":"TEME","MEAN_MOTION":"15.06401736","PERIAPSIS":"546.240","MEAN_MOTION_DDOT":"0.0000000000000","CLASSIFICATION_TYPE":"U","OBJECT_TYPE":"PAYLOAD","NORAD_CAT_ID":"48454","RCS_SIZE":"LARGE","MEAN_ELEMENT_THEORY":"SGP4","DECAY_DATE":null,"MEAN_ANOMALY":"286.8630","TLE_LINE1":"1 48454U 21040AC  22053.81659977  .00001819  00000-0  14096-3 0  9998","OBJECT_NAME":"STARLINK-2654","COUNTRY_CODE":"US","EPHEMERIS_TYPE":"0","ELEMENT_SET_NO":"999","SITE":"AFETR","MEAN_MOTION_DOT":"0.00001819","BSTAR":"0.00014096000000","CENTER_NAME":"EARTH","SEMIMAJOR_AXIS":"6925.343","TLE_LINE2":"2 48454  53.0563 327.0732 0001398  73.2512 286.8630 15.06401736 44187","INCLINATION":"53.0563","OBJECT_ID":"2021-040AC","ECCENTRICITY":"0.00013980","GP_ID":"196685022","TIME_SYSTEM":"UTC","FILE":"3314780","LAUNCH_DATE":"2021-05-09","REV_AT_EPOCH":"4418","ARG_OF_PERICENTER":"73.2512"},{"TIME_SYSTEM":"UTC","FILE":"3314780","ECCENTRICITY":"0.00016070","GP_ID":"196685273","ARG_OF_PERICENTER":"62.0332","REV_AT_EPOCH":"4417","LAUNCH_DATE":"2021-05-09","EPHEMERIS_TYPE":"0","SITE":"AFETR","ELEMENT_SET_NO":"999","MEAN_MOTION_DOT":"-0.00000754","MEAN_ANOMALY":"298.0820","TLE_LINE1":"1 48455U 21040AD  22053.81292804 -.00000754  00000-0 -31703-4 0  9995","OBJECT_NAME":"STARLINK-2497","COUNTRY_CODE":"US","INCLINATION":"53.0559","OBJECT_ID":"2021-040AD","BSTAR":"-0.00003170300000","CENTER_NAME":"EARTH","SEMIMAJOR_AXIS":"6925.390","TLE_LINE2":"2 48455  53.0559 327.0778 0001607  62.0332 298.0820 15.06386486 44171","OBJECT_TYPE":"PAYLOAD","MEAN_MOTION_DDOT":"0.0000000000000","CLASSIFICATION_TYPE":"U","RCS_SIZE":"LARGE","MEAN_ELEMENT_THEORY":"SGP4","DECAY_DATE":null,"NORAD_CAT_ID":"48455","EPOCH":"2022-02-22T19:30:36.982656","RA_OF_ASC_NODE":"327.0778","PERIOD":"95.593","APOAPSIS":"548.368","MEAN_MOTION":"15.06386486","PERIAPSIS":"546.142","REF_FRAME":"TEME"},{"REF_FRAME":"TEME","MEAN_MOTION":"15.06405750","PERIAPSIS":"545.804","APOAPSIS":"548.588","EPOCH":"2022-02-22T11:27:35.639712","PERIOD":"95.592","RA_OF_ASC_NODE":"328.5910","NORAD_CAT_ID":"48456","MEAN_ELEMENT_THEORY":"SGP4","RCS_SIZE":"LARGE","DECAY_DATE":null,"CLASSIFICATION_TYPE":"U","MEAN_MOTION_DDOT":"0.0000000000000","OBJECT_TYPE":"PAYLOAD","CENTER_NAME":"EARTH","BSTAR":"0.00017989000000","TLE_LINE2":"2 48456  53.0545 328.5910 0002010  57.0941 303.0241 15.06405750 44732","SEMIMAJOR_AXIS":"6925.331","OBJECT_ID":"2021-040AE","INCLINATION":"53.0545","OBJECT_NAME":"STARLINK-2508","MEAN_ANOMALY":"303.0241","TLE_LINE1":"1 48456U 21040AE  22053.47749583  .00002399  00000-0  17989-3 0  9993","COUNTRY_CODE":"US","SITE":"AFETR","ELEMENT_SET_NO":"999","MEAN_MOTION_DOT":"0.00002399","EPHEMERIS_TYPE":"0","LAUNCH_DATE":"2021-05-09","REV_AT_EPOCH":"4473","ARG_OF_PERICENTER":"57.0941","ECCENTRICITY":"0.00020100","GP_ID":"196651383","FILE":"3314220","TIME_SYSTEM":"UTC"}];
